$$SOE
2460154.500000000, A.D. 2023-Jul-29 00:00:00.0000, 8.224972141439196E+07, 6.622417967506988E+08, -5.901416109793517E+07,
2460161.500000000, A.D. 2023-Aug-05 00:00:00.0000, 7.468645011384289E+07, 6.644094904653172E+08, -6.002647920876542E+07,
2460168.500000000, A.D. 2023-Aug-12 00:00:00.0000, 6.711121695912330E+07, 6.664704773463768E+08, -6.102915334383032E+07,
2460175.500000000, A.D. 2023-Aug-19 00:00:00.0000, 5.952529971402182E+07, 6.684250595597098E+08, -6.202208036770159E+07,
2460182.500000000, A.D. 2023-Aug-26 00:00:00.0000, 5.192996255893352E+07, 6.702735465867981E+08, -6.300515941126335E+07,
2460189.500000000, A.D. 2023-Sep-02 00:00:00.0000, 4.432645629870361E+07, 6.720162549676629E+08, -6.397829181796762E+07,
2460196.500000000, A.D. 2023-Sep-09 00:00:00.0000, 3.671601858321732E+07, 6.736535079418803E+08, -6.494138110259208E+07,
2460203.500000000, A.D. 2023-Sep-16 00:00:00.0000, 2.909987430895128E+07, 6.751856349294608E+08, -6.589433294262493E+07,
2460210.500000000, A.D. 2023-Sep-23 00:00:00.0000, 2.147923661768823E+07, 6.766129711382425E+08, -6.683705521697637E+07,
2460217.500000000, A.D. 2023-Sep-30 00:00:00.0000, 1.385530815276910E+07, 6.779358584885292E+08, -6.776945796352798E+07,
2460224.500000000, A.D. 2023-Oct-07 00:00:00.0000, 6.229280219331643E+06, 6.791546473118619E+08, -6.869145308388162E+07,
2460231.500000000, A.D. 2023-Oct-14 00:00:00.0000, -1.397669111689067E+06, 6.802696955099568E+08, -6.960295416114959E+07,
2460238.500000000, A.D. 2023-Oct-21 00:00:00.0000, -9.024374727600783E+06, 6.812813667764482E+08, -7.050387655574748E+07,
2460245.500000000, A.D. 2023-Oct-28 00:00:00.0000, -1.664968345024791E+07, 6.821900301416713E+08, -7.139413746370727E+07,
2460252.500000000, A.D. 2023-Nov-04 00:00:00.0000, -2.427245351436896E+07, 6.829960600695858E+08, -7.227365588551942E+07,
2460259.500000000, A.D. 2023-Nov-11 00:00:00.0000, -3.189155437051722E+07, 6.836998365062914E+08, -7.314235257043910E+07,
2460266.500000000, A.D. 2023-Nov-18 00:00:00.0000, -3.950586659327309E+07, 6.843017448153281E+08, -7.400014996129888E+07,
2460273.500000000, A.D. 2023-Nov-25 00:00:00.0000, -4.711428182220283E+07, 6.848021756220217E+08, -7.484697214438438E+07,
2460280.500000000, A.D. 2023-Dec-02 00:00:00.0000, -5.471570270762650E+07, 6.852015245555634E+08, -7.568274480768120E+07,
2460287.500000000, A.D. 2023-Dec-09 00:00:00.0000, -6.230904278351222E+07, 6.855001918299184E+08, -7.650739521935594E+07,
2460294.500000000, A.D. 2023-Dec-16 00:00:00.0000, -6.989322597999462E+07, 6.856985816761373E+08, -7.732085225180930E+07,
2460301.500000000, A.D. 2023-Dec-23 00:00:00.0000, -7.746718542704567E+07, 6.857971023135557E+08, -7.812304642717135E+07,
2460308.500000000, A.D. 2023-Dec-30 00:00:00.0000, -8.502986288933590E+07, 6.857961675091615E+08, -7.891390977573729E+07,
2460315.500000000, A.D. 2024-Jan-06 00:00:00.0000, -9.258021060439503E+07, 6.856961973639210E+08, -7.969337553779933E+07,
2460322.500000000, A.D. 2024-Jan-13 00:00:00.0000, -1.001171923514953E+08, 6.854976165183704E+08, -8.046137814759350E+07,
2460329.500000000, A.D. 2024-Jan-20 00:00:00.0000, -1.076397825281030E+08, 6.852008528620532E+08, -8.121785335977951E+07,
2460336.500000000, A.D. 2024-Jan-27 00:00:00.0000, -1.151469652626006E+08, 6.848063373991159E+08, -8.196273827939552E+07,
2460343.500000000, A.D. 2024-Feb-03 00:00:00.0000, -1.226377339915769E+08, 6.843145043212011E+08, -8.269597133372667E+07,
2460350.500000000, A.D. 2024-Feb-10 00:00:00.0000, -1.301110912243664E+08, 6.837257909962811E+08, -8.341749223549721E+07,
2460357.500000000, A.D. 2024-Feb-17 00:00:00.0000, -1.375660483561844E+08, 6.830406378812170E+08, -8.412724194961941E+07,
2460364.500000000, A.D. 2024-Feb-24 00:00:00.0000, -1.450016254939338E+08, 6.822594883727208E+08, -8.482516266572675E+07,
2460371.500000000, A.D. 2024-Mar-02 00:00:00.0000, -1.524168512653211E+08, 6.813827885640771E+08, -8.551119778193492E+07,
2460378.500000000, A.D. 2024-Mar-09 00:00:00.0000, -1.598107624724640E+08, 6.804109868446230E+08, -8.618529191775948E+07,
2460385.500000000, A.D. 2024-Mar-16 00:00:00.0000, -1.671824031947210E+08, 6.793445335391107E+08, -8.684739097636625E+07,
2460392.500000000, A.D. 2024-Mar-23 00:00:00.0000, -1.745308234443857E+08, 6.781838816960175E+08, -8.749744215608394E+07,
2460399.500000000, A.D. 2024-Mar-30 00:00:00.0000, -1.818550796162454E+08, 6.769294889980724E+08, -8.813539370787203E+07,
2460406.500000000, A.D. 2024-Apr-06 00:00:00.0000, -1.891542364746892E+08, 6.755818174269420E+08, -8.876119473733568E+07,
2460413.500000000, A.D. 2024-Apr-13 00:00:00.0000, -1.964273671274529E+08, 6.741413315180285E+08, -8.937479530852535E+07,
2460420.500000000, A.D. 2024-Apr-20 00:00:00.0000, -2.036735519384176E+08, 6.726084978822448E+08, -8.997614654351771E+07,
2460427.500000000, A.D. 2024-Apr-27 00:00:00.0000, -2.108918778963666E+08, 6.709837854334974E+08, -9.056520062452644E+07,
2460434.500000000, A.D. 2024-May-04 00:00:00.0000, -2.180814383516883E+08, 6.692676656184151E+08, -9.114191076399571E+07,
2460441.500000000, A.D. 2024-May-11 00:00:00.0000, -2.252413328826863E+08, 6.674606125465496E+08, -9.170623117273057E+07,
2460448.500000000, A.D. 2024-May-18 00:00:00.0000, -2.323706672095393E+08, 6.655631030428604E+08, -9.225811703166857E+07,
2460455.500000000, A.D. 2024-May-25 00:00:00.0000, -2.394685531312059E+08, 6.635756166156337E+08, -9.279752446996894E+07,
2460462.500000000, A.D. 2024-Jun-01 00:00:00.0000, -2.465341084254062E+08, 6.614986352827026E+08, -9.332441055938834E+07,
2460469.500000000, A.D. 2024-Jun-08 00:00:00.0000, -2.535664564652793E+08, 6.593326432332709E+08, -9.383873334916964E+07,
2460476.500000000, A.D. 2024-Jun-15 00:00:00.0000, -2.605647251531650E+08, 6.570781268706598E+08, -9.434045193328157E+07,
2460483.500000000, A.D. 2024-Jun-22 00:00:00.0000, -2.675280461766689E+08, 6.547355764114199E+08, -9.482952636153805E+07,
2460490.500000000, A.D. 2024-Jun-29 00:00:00.0000, -2.744555567082963E+08, 6.523054872201424E+08, -9.530591734852692E+07,
2460497.500000000, A.D. 2024-Jul-06 00:00:00.0000, -2.813464009033322E+08, 6.497883584083357E+08, -9.576958622446451E+07,
2460504.500000000, A.D. 2024-Jul-13 00:00:00.0000, -2.881997292470054E+08, 6.471846915210851E+08, -9.622049507569760E+07,
2460511.500000000, A.D. 2024-Jul-20 00:00:00.0000, -2.950146977369181E+08, 6.444949904603723E+08, -9.665860679882729E+07,
2460518.500000000, A.D. 2024-Jul-27 00:00:00.0000, -3.017904675568106E+08, 6.417197616857469E+08, -9.708388508673415E+07,
2460525.500000000, A.D. 2024-Aug-03 00:00:00.0000, -3.085262049687855E+08, 6.388595143175319E+08, -9.749629440226865E+07,
2460532.500000000, A.D. 2024-Aug-10 00:00:00.0000, -3.152210812582675E+08, 6.359147601384010E+08, -9.789579995535940E+07,
2460539.500000000, A.D. 2024-Aug-17 00:00:00.0000, -3.218742726843420E+08, 6.328860135154381E+08, -9.828236768633422E+07,
2460546.500000000, A.D. 2024-Aug-24 00:00:00.0000, -3.284849604075531E+08, 6.297737912208346E+08, -9.865596426008189E+07,
2460553.500000000, A.D. 2024-Aug-31 00:00:00.0000, -3.350523302794361E+08, 6.265786120900676E+08, -9.901655708692589E+07,
2460560.500000000, A.D. 2024-Sep-07 00:00:00.0000, -3.415755721282234E+08, 6.233009966441833E+08, -9.936411439364427E+07,
2460567.500000000, A.D. 2024-Sep-14 00:00:00.0000, -3.480538784555216E+08, 6.199414676723015E+08, -9.969860527130896E+07,
2460574.500000000, A.D. 2024-Sep-21 00:00:00.0000, -3.544864445728299E+08, 6.165005521872969E+08, -1.000199994804204E+08,
2460581.500000000, A.D. 2024-Sep-28 00:00:00.0000, -3.608724706651097E+08, 6.129787815271720E+08, -1.003282672325473E+08,
2460588.500000000, A.D. 2024-Oct-05 00:00:00.0000, -3.672111621115180E+08, 6.093766896034551E+08, -1.006233792849033E+08,
2460595.500000000, A.D. 2024-Oct-12 00:00:00.0000, -3.735017284242163E+08, 6.056948122767215E+08, -1.009053070713384E+08,
2460602.500000000, A.D. 2024-Oct-19 00:00:00.0000, -3.797433825562991E+08, 6.019336875887907E+08, -1.011740227314258E+08,
2460609.500000000, A.D. 2024-Oct-26 00:00:00.0000, -3.859353406110843E+08, 5.980938560504411E+08, -1.014294991001921E+08,
2460616.500000000, A.D. 2024-Nov-02 00:00:00.0000, -3.920768216952577E+08, 5.941758608364191E+08, -1.016717096941843E+08,
2460623.500000000, A.D. 2024-Nov-09 00:00:00.0000, -3.981670478191350E+08, 5.901802479086565E+08, -1.019006287009954E+08,
2460630.500000000, A.D. 2024-Nov-16 00:00:00.0000, -4.042052438179912E+08, 5.861075660682167E+08, -1.021162309745471E+08,
2460637.500000000, A.D. 2024-Nov-23 00:00:00.0000, -4.101906372473878E+08, 5.819583668863301E+08, -1.023184920444425E+08,
2460644.500000000, A.D. 2024-Nov-30 00:00:00.0000, -4.161224580440791E+08, 5.777332044720999E+08, -1.025073881618903E+08,
2460651.500000000, A.D. 2024-Dec-07 00:00:00.0000, -4.219999375330043E+08, 5.734326354976794E+08, -1.026828963861955E+08,
2460658.500000000, A.D. 2024-Dec-14 00:00:00.0000, -4.278223074690609E+08, 5.690572207051485E+08, -1.028449945485538E+08,
2460665.500000000, A.D. 2024-Dec-21 00:00:00.0000, -4.335888014322254E+08, 5.646075266547333E+08, -1.029936609818340E+08,
2460672.500000000, A.D. 2024-Dec-28 00:00:00.0000, -4.392986566031924E+08, 5.600841247471422E+08, -1.031288744395389E+08,
2460679.500000000, A.D. 2025-Jan-04 00:00:00.0000, -4.449511133221652E+08, 5.554875898959136E+08, -1.032506142476526E+08,
2460686.500000000, A.D. 2025-Jan-11 00:00:00.0000, -4.505454142522727E+08, 5.508185005097120E+08, -1.033588603865198E+08,
2460693.500000000, A.D. 2025-Jan-18 00:00:00.0000, -4.560808040644917E+08, 5.460774388660696E+08, -1.034535934935785E+08,
2460700.500000000, A.D. 2025-Jan-25 00:00:00.0000, -4.615565294003274E+08, 5.412649914021311E+08, -1.035347948478025E+08,
2460707.500000000, A.D. 2025-Feb-01 00:00:00.0000, -4.669718389224939E+08, 5.363817488922581E+08, -1.036024463554073E+08,
2460714.500000000, A.D. 2025-Feb-08 00:00:00.0000, -4.723259833949541E+08, 5.314283065321112E+08, -1.036565305402930E+08,
$$EOE